CCSDS_OMM_VERS = 2.0
CREATION_DATE  = 
ORIGINATOR     = 

OBJECT_NAME    = STARLINK-35522
OBJECT_ID      = 2025-253Y
CENTER_NAME    = EARTH
REF_FRAME      = TEME
TIME_SYSTEM    = UTC
MEAN_ELEMENT_THEORY = SGP/SGP4

EPOCH          = 2025-11-18T20:00:01.999008
MEAN_MOTION    = 15.77822313
ECCENTRICITY   = .0001317
INCLINATION    = 42.9973
RA_OF_ASC_NODE = 125.6919
ARG_OF_PERICENTER = 279.4421
MEAN_ANOMALY   = 260.5193

EPHEMERIS_TYPE = 0
CLASSIFICATION_TYPE = U
NORAD_CAT_ID   = 66341
ELEMENT_SET_NO = 999
REV_AT_EPOCH   = 318
BSTAR          = -.12119E-1
MEAN_MOTION_DOT = -.1842571E-1
MEAN_MOTION_DDOT = 0

CCSDS_OMM_VERS = 2.0
CREATION_DATE  = 
ORIGINATOR     = 

OBJECT_NAME    = STARLINK-35535
OBJECT_ID      = 2025-253Z
CENTER_NAME    = EARTH
REF_FRAME      = TEME
TIME_SYSTEM    = UTC
MEAN_ELEMENT_THEORY = SGP/SGP4

EPOCH          = 2025-11-18T20:00:01.999008
MEAN_MOTION    = 15.76632185
ECCENTRICITY   = .0001415
INCLINATION    = 42.9971
RA_OF_ASC_NODE = 125.6407
ARG_OF_PERICENTER = 274.4159
MEAN_ANOMALY   = 285.0856

EPHEMERIS_TYPE = 0
CLASSIFICATION_TYPE = U
NORAD_CAT_ID   = 66342
ELEMENT_SET_NO = 999
REV_AT_EPOCH   = 308
BSTAR          = -.12502E-1
MEAN_MOTION_DOT = -.1806646E-1
MEAN_MOTION_DDOT = 0

CCSDS_OMM_VERS = 2.0
CREATION_DATE  = 
ORIGINATOR     = 

OBJECT_NAME    = STARLINK-35467
OBJECT_ID      = 2025-253AA
CENTER_NAME    = EARTH
REF_FRAME      = TEME
TIME_SYSTEM    = UTC
MEAN_ELEMENT_THEORY = SGP/SGP4

EPOCH          = 2025-11-18T20:00:01.999008
MEAN_MOTION    = 15.76768314
ECCENTRICITY   = .0001213
INCLINATION    = 42.9969
RA_OF_ASC_NODE = 125.6450
ARG_OF_PERICENTER = 275.9465
MEAN_ANOMALY   = 281.4892

EPHEMERIS_TYPE = 0
CLASSIFICATION_TYPE = U
NORAD_CAT_ID   = 66343
ELEMENT_SET_NO = 999
REV_AT_EPOCH   = 308
BSTAR          = -.13043E-1
MEAN_MOTION_DOT = -.1884393E-1
MEAN_MOTION_DDOT = 0

CCSDS_OMM_VERS = 2.0
CREATION_DATE  = 
ORIGINATOR     = 

OBJECT_NAME    = STARLINK-35511
OBJECT_ID      = 2025-253AB
CENTER_NAME    = EARTH
REF_FRAME      = TEME
TIME_SYSTEM    = UTC
MEAN_ELEMENT_THEORY = SGP/SGP4

EPOCH          = 2025-11-18T20:00:01.999008
MEAN_MOTION    = 15.76219022
ECCENTRICITY   = .0001584
INCLINATION    = 42.9975
RA_OF_ASC_NODE = 125.6207
ARG_OF_PERICENTER = 285.0524
MEAN_ANOMALY   = 282.5009

EPHEMERIS_TYPE = 0
CLASSIFICATION_TYPE = U
NORAD_CAT_ID   = 66344
ELEMENT_SET_NO = 999
REV_AT_EPOCH   = 308
BSTAR          = -.10346E-1
MEAN_MOTION_DOT = -.1475916E-1
MEAN_MOTION_DDOT = 0

CCSDS_OMM_VERS = 2.0
CREATION_DATE  = 
ORIGINATOR     = 

OBJECT_NAME    = STARLINK-35440
OBJECT_ID      = 2025-253AC
CENTER_NAME    = EARTH
REF_FRAME      = TEME
TIME_SYSTEM    = UTC
MEAN_ELEMENT_THEORY = SGP/SGP4

EPOCH          = 2025-11-18T20:00:01.999008
MEAN_MOTION    = 15.76483391
ECCENTRICITY   = .0001436
INCLINATION    = 42.9968
RA_OF_ASC_NODE = 125.6288
ARG_OF_PERICENTER = 292.1663
MEAN_ANOMALY   = 271.3511

EPHEMERIS_TYPE = 0
CLASSIFICATION_TYPE = U
NORAD_CAT_ID   = 66345
ELEMENT_SET_NO = 999
REV_AT_EPOCH   = 308
BSTAR          = -.12349E-1
MEAN_MOTION_DOT = -.1776867E-1
MEAN_MOTION_DDOT = 0

CCSDS_OMM_VERS = 2.0
CREATION_DATE  = 
ORIGINATOR     = 

OBJECT_NAME    = STARLINK-35482
OBJECT_ID      = 2025-253AD
CENTER_NAME    = EARTH
REF_FRAME      = TEME
TIME_SYSTEM    = UTC
MEAN_ELEMENT_THEORY = SGP/SGP4

EPOCH          = 2025-11-18T20:00:01.999008
MEAN_MOTION    = 15.76368118
ECCENTRICITY   = .0001439
INCLINATION    = 42.9968
RA_OF_ASC_NODE = 125.6245
ARG_OF_PERICENTER = 289.8101
MEAN_ANOMALY   = 275.7021

EPHEMERIS_TYPE = 0
CLASSIFICATION_TYPE = U
NORAD_CAT_ID   = 66346
ELEMENT_SET_NO = 999
REV_AT_EPOCH   = 318
BSTAR          = -.11272E-1
MEAN_MOTION_DOT = -.1631807E-1
MEAN_MOTION_DDOT = 0

CCSDS_OMM_VERS = 2.0
CREATION_DATE  = 
ORIGINATOR     = 

OBJECT_NAME    = STARLINK-35438
OBJECT_ID      = 2025-253AE
CENTER_NAME    = EARTH
REF_FRAME      = TEME
TIME_SYSTEM    = UTC
MEAN_ELEMENT_THEORY = SGP/SGP4

EPOCH          = 2025-11-18T20:00:01.999008
MEAN_MOTION    = 15.76235579
ECCENTRICITY   = .0001559
INCLINATION    = 42.9972
RA_OF_ASC_NODE = 125.6149
ARG_OF_PERICENTER = 286.5598
MEAN_ANOMALY   = 282.8994

EPHEMERIS_TYPE = 0
CLASSIFICATION_TYPE = U
NORAD_CAT_ID   = 66347
ELEMENT_SET_NO = 999
REV_AT_EPOCH   = 308
BSTAR          = -.10508E-1
MEAN_MOTION_DOT = -.1497166E-1
MEAN_MOTION_DDOT = 0

CCSDS_OMM_VERS = 2.0
CREATION_DATE  = 
ORIGINATOR     = 

OBJECT_NAME    = SHIYAN-32 A
OBJECT_ID      = 2025-255A
CENTER_NAME    = EARTH
REF_FRAME      = TEME
TIME_SYSTEM    = UTC
MEAN_ELEMENT_THEORY = SGP/SGP4

EPOCH          = 2025-11-18T20:09:23.198112
MEAN_MOTION    = 15.41613378
ECCENTRICITY   = .0013101
INCLINATION    = 52.9972
RA_OF_ASC_NODE = 291.5747
ARG_OF_PERICENTER = 326.4796
MEAN_ANOMALY   = 33.5377

EPHEMERIS_TYPE = 0
CLASSIFICATION_TYPE = U
NORAD_CAT_ID   = 66376
ELEMENT_SET_NO = 999
REV_AT_EPOCH   = 166
BSTAR          = .50604E-3
MEAN_MOTION_DOT = .21332E-3
MEAN_MOTION_DDOT = 0

CCSDS_OMM_VERS = 2.0
CREATION_DATE  = 
ORIGINATOR     = 

OBJECT_NAME    = SHIYAN-32 B
OBJECT_ID      = 2025-255B
CENTER_NAME    = EARTH
REF_FRAME      = TEME
TIME_SYSTEM    = UTC
MEAN_ELEMENT_THEORY = SGP/SGP4

EPOCH          = 2025-11-18T20:05:17.480832
MEAN_MOTION    = 15.42287590
ECCENTRICITY   = .0014382
INCLINATION    = 52.9975
RA_OF_ASC_NODE = 291.5573
ARG_OF_PERICENTER = 324.4198
MEAN_ANOMALY   = 35.5846

EPHEMERIS_TYPE = 0
CLASSIFICATION_TYPE = U
NORAD_CAT_ID   = 66377
ELEMENT_SET_NO = 999
REV_AT_EPOCH   = 152
BSTAR          = .91294E-3
MEAN_MOTION_DOT = .39834E-3
MEAN_MOTION_DDOT = 0

CCSDS_OMM_VERS = 2.0
CREATION_DATE  = 
ORIGINATOR     = 

OBJECT_NAME    = SHIYAN-32 C
OBJECT_ID      = 2025-255C
CENTER_NAME    = EARTH
REF_FRAME      = TEME
TIME_SYSTEM    = UTC
MEAN_ELEMENT_THEORY = SGP/SGP4

EPOCH          = 2025-11-18T20:02:55.787424
MEAN_MOTION    = 15.42583872
ECCENTRICITY   = .001381
INCLINATION    = 52.9988
RA_OF_ASC_NODE = 291.5471
ARG_OF_PERICENTER = 328.4798
MEAN_ANOMALY   = 31.5377

EPHEMERIS_TYPE = 0
CLASSIFICATION_TYPE = U
NORAD_CAT_ID   = 66378
ELEMENT_SET_NO = 999
REV_AT_EPOCH   = 152
BSTAR          = .90562E-3
MEAN_MOTION_DOT = .39897E-3
MEAN_MOTION_DDOT = 0

CCSDS_OMM_VERS = 2.0
CREATION_DATE  = 
ORIGINATOR     = 

OBJECT_NAME    = CHUTIAN-2 A
OBJECT_ID      = 2025-256A
CENTER_NAME    = EARTH
REF_FRAME      = TEME
TIME_SYSTEM    = UTC
MEAN_ELEMENT_THEORY = SGP/SGP4

EPOCH          = 2025-11-18T17:03:13.802688
MEAN_MOTION    = 14.50667584
ECCENTRICITY   = .0013364
INCLINATION    = 98.2818
RA_OF_ASC_NODE = 27.8935
ARG_OF_PERICENTER = 257.4696
MEAN_ANOMALY   = 102.5004

EPHEMERIS_TYPE = 0
CLASSIFICATION_TYPE = U
NORAD_CAT_ID   = 66409
ELEMENT_SET_NO = 999
REV_AT_EPOCH   = 139
BSTAR          = .33645E-4
MEAN_MOTION_DOT = .88E-6
MEAN_MOTION_DDOT = 0

