STARLINK-35522          
1 66341U 25253Y   25322.83335647 -.01842571  00000+0 -12119-1 0  9994
2 66341  42.9973 125.6919 0001317 279.4421 260.5193 15.77822313  3187
STARLINK-35535          
1 66342U 25253Z   25322.83335647 -.01806646  00000+0 -12502-1 0  9994
2 66342  42.9971 125.6407 0001415 274.4159 285.0856 15.76632185  3082
STARLINK-35467          
1 66343U 25253AA  25322.83335647 -.01884393  00000+0 -13043-1 0  9991
2 66343  42.9969 125.6450 0001213 275.9465 281.4892 15.76768314  3084
STARLINK-35511          
1 66344U 25253AB  25322.83335647 -.01475916  00000+0 -10346-1 0  9992
2 66344  42.9975 125.6207 0001584 285.0524 282.5009 15.76219022  3080
STARLINK-35440          
1 66345U 25253AC  25322.83335647 -.01776867  00000+0 -12349-1 0  9997
2 66345  42.9968 125.6288 0001436 292.1663 271.3511 15.76483391  3087
STARLINK-35482          
1 66346U 25253AD  25322.83335647 -.01631807  00000+0 -11272-1 0  9996
2 66346  42.9968 125.6245 0001439 289.8101 275.7021 15.76368118  3188
STARLINK-35438          
1 66347U 25253AE  25322.83335647 -.01497166  00000+0 -10508-1 0  9996
2 66347  42.9972 125.6149 0001559 286.5598 282.8994 15.76235579  3085
SHIYAN-32 A             
1 66376U 25255A   25322.83985183  .00021332  00000+0  50604-3 0  9994
2 66376  52.9972 291.5747 0013101 326.4796  33.5377 15.41613378  1662
SHIYAN-32 B             
1 66377U 25255B   25322.83700788  .00039834  00000+0  91294-3 0  9997
2 66377  52.9975 291.5573 0014382 324.4198  35.5846 15.42287590  1521
SHIYAN-32 C             
1 66378U 25255C   25322.83536791  .00039897  00000+0  90562-3 0  9995
2 66378  52.9988 291.5471 0013810 328.4798  31.5377 15.42583872  1525
CHUTIAN-2 A             
1 66409U 25256A   25322.71057642  .00000088  00000+0  33645-4 0  9991
2 66409  98.2818  27.8935 0013364 257.4696 102.5004 14.50667584  1394
